1 05758U 69082JS  18212.29868150 -.00000018  00000-0  32950-4 0  9996
2 05758  69.8070  72.6158 0047592 297.6260 172.8342 13.80613080466503
1  5763U 71015CF  18212.88383441 +.00000119 +00000-0 +25234-3 0  9998
2  5763 066.9020 171.8671 0385762 334.9167 023.3564 13.32281543268710
1 05778U 71114C   18213.07731556  .00000236  00000-0  43760-4 0  9995
2 05778  74.0107 241.0907 0010097 313.7250  46.3084 14.71051248474631
1 05785U 61015JZ  18213.14586495  .00000082  00000-0  14208-3 0  9993
2 05785  65.6412  92.3270 0148630 218.8910 140.1389 13.81769475888411
1 05786U 61015KA  18212.24749301  .00000125  00000-0  13227-3 0  9999
2 05786  67.1224 151.3709 0132968 211.9034 147.3950 13.97618142872070
1 05794U 69082JW  18213.19407743  .00000274  00000-0  87943-4 0  9998
2 05794  70.0037 140.0930 0035325 331.5713  28.3492 14.49108389993200
1 05808U 61015KC  18211.30619378  .00000421  00000-0  57707-4 0  9991
2 05808  66.5898 166.7200 0049124 108.0447 252.6041 14.89011783974474
1 05824U 70025MJ  18212.85821518  .00000143  00000-0  13533-3 0  9991
2 05824  97.8765 177.7274 0616484  29.5299 333.9207 13.26520074146405
1 05826U 61015KE  18212.99370135  .00000094  00000-0  12817-3 0  9990
2 05826  66.6794 221.6339 0070567  50.9428 309.7902 13.93623831869721
1 05842U 70025ML  18212.24845485  .00000855  00000-0  20349-3 0  9996
2 05842  99.9920 143.5442 0038702  57.5773 302.9154 14.56780833479184
1  5858U 71114D   18212.72372555 +.00000290 +00000-0 +46954-4 0  9993
2  5858 074.0089 118.8472 0007808 224.3363 135.7186 14.76177199478117
1 05871U 68097DK  18212.78958715 -.00000138  00000-0 -14718-4 0  9994
2 05871  62.8279 289.5231 0885391 247.7730 102.7108 13.03578676338224
1  5876U 61015KF  18212.73859280 +.00000496 +00000-0 +14182-2 0  9992
2  5876 065.6749 310.8781 0734096 256.7400 095.0772 12.47610467805984
1  5957U 70025MN  18212.73082851 +.00000875 +00000-0 +39062-3 0  9991
2  5957 099.6379 318.1076 0033770 019.1665 341.0773 14.25413062758716
1 05958U 70025MP  18212.81776990  .00000120  00000-0  21241-3 0  9998
2 05958  99.4699 148.5971 0051126 252.2973 124.8716 13.61300263383733
1  5967U 70025MQ  18212.11291869 -.00000546 +00000-0 -18431-2 0  9998
2  5967 101.6433 273.9568 0123473 115.5089 279.2722 12.89919053266996
1 05971U 67006E   18211.59207273 -.00000029  00000-0  94636-4 0  9993
2 05971 101.9550 336.3507 0112302 270.4943 156.7127 12.73378541394860
1 05992U 65108S   17262.14146407  .00001020  00000-0  94545-1 0  9991
2 05992  27.0222 197.1692 6638924 324.9716   5.5430  2.66306000136186
1 06014U 70025MR  18212.43786048  .00000625  00000-0  50419-3 0  9994
2 06014 100.0500  33.7296 0056196 235.9398 123.6417 13.94104287417358
1 06063U 72043C   18212.77402119  .00000409  00000-0  50276-4 0  9993
2 06063  74.0359  86.0227 0005262 263.2803  96.7778 14.86677982442393
1 06065U 72043D   18213.07491430  .00000276  00000-0  49247-4 0  9991
2 06065  74.0680  78.3678 0013139 179.9953 180.1222 14.71972014432587
1 06139U 70025MV  18211.66605586  .00000233  00000-0  20888-3 0  9995
2 06139  99.0996 106.2903 0073795 315.1564  44.3648 13.93041935427369
1 06157U 70025MX  18212.83296573  .00000765  00000-0  49928-3 0  9993
2 06157  99.8807  72.8934 0016566   0.5984 359.5198 14.05845529440613
1  6159U 70025MY  18208.68879779 +.00000442 +00000-0 +19677-2 0  9997
2  6159 101.2540 285.8682 0072073 129.4233 024.8781 12.85434991285469
1 06160U 70025MZ  18213.07032449  .00002206  00000-0  73823-3 0  9997
2 06160 100.4333 140.5087 0054592 138.2933 222.2429 14.37874942409047
1 06167U 70025NB  18213.13231882  .00000096  00000-0  17394-3 0  9999
2 06167 100.0854  78.4913 0033055  30.8344 120.8593 13.66114537402427
1  6176U 68091CG  18212.76425808 -.00000407 +00000-0 -60201-3 0  9993
2  6176 065.7259 122.0879 0467595 170.9349 190.0502 13.06773327783020
1  6213U 66087E   18212.85823010 +.00000485 +00000-0 +15091-2 0  9995
2  6213 101.7992 222.6572 0061676 330.6625 150.9629 13.11144888417799
1 06214U 66016E   18212.86969264 -.00000021  00000-0  12167-3 0  9990
2 06214 101.4364 184.0810 0122297  79.8978 310.2541 12.62103700412091
1 06216U 70025NE  18213.18876017  .00000622  00000-0  18937-3 0  9993
2 06216  98.9770 303.7370 0244654 185.2931 174.5657 14.30086102484280
1  6252U 65020FD  18212.34188527 -.00000071 +00000-0 +15605-3 0  9999
2  6252 056.0395 344.0126 0192105 122.5763 264.8259 12.29943279311008
1  6284U 72069D   18212.64822734 +.00000214 +00000-0 +39042-4 0  9993
2  6284 090.4376 183.4615 0046153 170.1040 190.1094 14.62551265326856
1  6289U 69024C   18212.92589198 +.00000207 +00000-0 +50975-3 0  9999
2  6289 073.9866 028.8616 0012653 029.5334 128.1112 13.26657586383762
1  6396U 72104D   18212.95644742 +.00000426 +00000-0 +51135-4 0  9994
2  6396 074.1096 208.8993 0005800 160.7062 199.4339 14.87390473422256
1  6747U 61015KM  18212.59196498 -.00000002 +00000-0 +54390-4 0  9990
2  6747 066.6006 064.4702 0148485 310.0642 048.7490 13.92804029890826
1 06748U 61015KN  18212.06097930  .00000860  00000-0  49721-3 0  9996
2 06748  66.8996  91.3234 0081711 293.3580  65.8929 14.12026396882710
1  6752U 68091CJ  18212.00142641 +.00000551 +00000-0 +67130-3 0  9997
2  6752 062.2833 211.4256 0659632 225.4998 129.0258 13.06110540282377
1  6764U 68091CK  18212.72204667 +.00000085 +00000-0 +44670-3 0  9992
2  6764 062.3420 319.8217 0763110 187.0813 328.6541 12.37355620369011
1 06765U 70025NG  18212.26336361  .00000035  00000-0  11696-3 0  9996
2 06765  99.7665 128.1022 0015516 326.6809 185.6062 13.54499319381419
1  6766U 70025NH  18212.54181296 +.00000359 +00000-0 +27397-3 0  9997
2  6766 100.1757 246.9106 0083656 213.2937 146.2944 13.99657154432099
1 06767U 70025NF  18213.48177738  .00000742  00000-0  58163-3 0  9999
2 06767  99.1171 102.3379 0019519 188.8848 171.1971 13.95131637715549
1 06823U 72079D   18213.18065144 -.00000030  00000-0 -10785-3 0  9997
2 06823  95.8132 293.3942 0052804 107.6739 280.3699 12.54737350 97474
1 06824U 72079E   18212.10199012  .00000005  00000-0  10164-3 0  9992
2 06824  95.5161 269.6013 0006305 192.9863 195.9551 12.56342343 99992
1 06842U 61015KP  18213.45748638  .00000022  00000-0  24301-3 0  9990
2 06842  66.7307 227.9901 0662400 259.7842 261.1838 12.44893764974249
1  6843U 71015CK  18212.69735380 +.00000362 +00000-0 +10009-3 0  9994
2  6843 065.6664 313.6969 0484579 290.7051 064.2733 14.06597121321124
1  6844U 71015CL  18212.87619209 +.00000215 +00000-0 +92894-4 0  9996
2  6844 065.9016 130.4729 0626410 133.3892 232.1125 13.67878328225609
1  7017U 73086H   18211.48457115 -.00000023 +00000-0 +14743-3 0  9995
2  7017 102.2604 030.7353 0151013 099.8054 288.8310 12.51768936027107
1  7023U 73086P   18210.86191483 -.00000012 +00000-0 +24972-3 0  9999
2  7023 101.9606 170.6093 0027150 258.2000 134.7611 12.35972165016635
1  7026U 73086S   18211.82659005 +.00000389 +00000-0 +23848-2 0  9994
2  7026 102.0914 177.8282 0123569 309.0391 079.6798 12.61897087051359
1  7027U 73086T   18212.78799182 +.00000279 +00000-0 +25873-2 0  9990
2  7027 101.9288 146.0652 0060239 319.7975 069.0690 12.34227867008901
1 07030U 73086W   18213.15448458 -.00000031  00000-0  11939-3 0  9999
2 07030 102.2067 283.9088 0090487 327.3019  60.1251 12.23904600997974
1  7034U 73086AA  18212.90396844 -.00000037 +00000-0 +46142-4 0  9997
2  7034 101.7123 193.2580 0017442 016.4755 011.2086 12.43573863028230
1 07040U 73086AG  18212.56980329 -.00000024  00000-0  11806-3 0  9997
2 07040 102.5496  60.4639 0194155  14.7097   7.1544 12.81627300 88851
1 07043U 73086AK  18212.90883204  .00000108  00000-0  59848-3 0  9992
2 07043 102.1352 351.3034 0216238 260.3680 261.3694 12.84787935 95207
1  7046U 73086AN  18212.87563729 -.00000028 +00000-0 +14179-3 0  9998
2  7046 102.3051 183.1738 0057469 104.2976 283.5949 12.29263104000440
1 07050U 73086AS  18213.46656837  .00000046  00000-0  53832-3 0  9990
2 07050 101.4141 215.8170 0053202  72.4529  82.7154 12.56219679 37275
1  7052U 73086AU  18212.88269472 -.00000018 +00000-0 +20758-3 0  9993
2  7052 102.0792 174.6242 0023421 119.4230 264.5313 12.37225228019069
1 07053U 73086AV  18212.66302987 -.00000170  00000-0 -83378-3 0  9996
2 07053 102.0139 273.7715 0042340  16.1916 138.7049 12.48087753 35524
1 07056U 73086AY  18212.86432619  .00000018  00000-0  57023-3 0  9994
2 07056 102.3732 171.3131 0086510 190.0866 183.7204 12.23992241998236
1 07058U 73086BA  18213.20837105  .00000271  00000-0  19908-2 0  9994
2 07058 101.5495 199.4667 0007712 359.0596  68.0021 12.53021919 38879
1  7059U 73086BB  18212.03039993 +.00000063 +00000-0 +92297-3 0  9996
2  7059 101.8797 047.3269 0104654 135.4840 031.0529 12.25850683996455
1 07064U 73086BG  18212.79126309 -.00000005  00000-0  17983-3 0  9999
2 07064 101.5083 326.4004 0182158  36.9818 116.4294 12.74974657 79742
1  7065U 73086BH  18212.63044042 -.00000335 +00000-0 -23735-2 0  9994
2  7065 101.8940 262.0948 0046239 019.7847 135.4302 12.33256512009191
1 07066U 73086BJ  18212.98564953  .00000136  00000-0  13486-2 0  9990
2 07066 101.6716 237.0253 0057045 177.2083 213.2775 12.38827625 18431
1  7068U 73086BL  18212.33519133 -.00000023 +00000-0 +11343-3 0  9998
2  7068 102.3967 236.0309 0216454 096.5868 038.2007 12.81297223090116
1  7069U 73086BM  18212.49035337 -.00000106 +00000-0 -45518-4 0  9990
2  7069 102.7874 095.6305 0261067 251.2367 106.0266 13.51705247172612
1  7074U 73086BS  18212.29774902 -.00000023 +00000-0 +11508-3 0  9990
2  7074 101.9420 149.2093 0176945 036.5236 116.6529 12.72096436076319
1 07081U 73086BZ  18212.18828483 -.00000089  00000-0 -18047-3 0  9998
2 07081 102.2706 101.4906 0166154 305.7016 210.7990 12.69462802 70636
1 07083U 73086CB  18212.87742692 -.00000147  00000-0 -83992-3 0  9999
2 07083 102.1942 183.9450 0066746 340.6658  51.4120 12.32056188  9783
1  7084U 73086CC  18211.14800479 -.00000028 +00000-0 +12494-3 0  9993
2  7084 101.8774 285.4803 0153023 209.3813 185.5990 12.25120085999986
1  7085U 73086CD  18212.54322747 -.00000064 +00000-0 -87424-4 0  9993
2  7085 102.1900 239.6978 0095749 343.1525 172.3561 12.59689412053736
